start=new Date('2023-06-15T00:00:00.000Z').valueOf();
sats=[{"REV_AT_EPOCH":"17522","RCS_SIZE":"LARGE","NORAD_CAT_ID":"45584","EPOCH":"2023-06-14T04:29:17.984544","ARG_OF_PERICENTER":"97.5064","APOAPSIS":"340.643","FILE":"3932965","MEAN_MOTION":"15.76733573","COUNTRY_CODE":"US","MEAN_MOTION_DDOT":"0.0000000000000","MEAN_ANOMALY":"262.6115","MEAN_ELEMENT_THEORY":"SGP4","TLE_LINE2":"2 45584  53.0468 217.6472 0001397  97.5064 262.6115 15.76733573175221","SEMIMAJOR_AXIS":"6717.840","MEAN_MOTION_DOT":"0.00003701","ECCENTRICITY":"0.00013970","BSTAR":"0.00002659400000","PERIOD":"91.328","TLE_LINE1":"1 45584U 20025BF  23165.18701371  .00003701  00000-0  26594-4 0  9991","CENTER_NAME":"EARTH","GP_ID":"233911344","OBJECT_ID":"2020-025BF","DECAY_DATE":null,"RA_OF_ASC_NODE":"217.6472","SITE":"AFETR","PERIAPSIS":"338.766","OBJECT_NAME":"STARLINK-1343","TIME_SYSTEM":"UTC","INCLINATION":"53.0468","LAUNCH_DATE":"2020-04-22","OBJECT_TYPE":"PAYLOAD","CLASSIFICATION_TYPE":"U","ELEMENT_SET_NO":"999","EPHEMERIS_TYPE":"0","REF_FRAME":"TEME"},{"MEAN_ANOMALY":"295.9633","MEAN_MOTION_DDOT":"0.0000000000000","BSTAR":"0.00006400100000","ECCENTRICITY":"0.00009170","MEAN_MOTION_DOT":"0.00000672","SEMIMAJOR_AXIS":"6925.353","TLE_LINE2":"2 45586  53.0534 241.5889 0000917  64.1450 295.9633 15.06398551174916","MEAN_ELEMENT_THEORY":"SGP4","NORAD_CAT_ID":"45586","RCS_SIZE":"LARGE","REV_AT_EPOCH":"17491","COUNTRY_CODE":"US","MEAN_MOTION":"15.06398551","FILE":"3933215","APOAPSIS":"547.853","ARG_OF_PERICENTER":"64.1450","EPOCH":"2023-06-14T15:02:10.851072","TIME_SYSTEM":"UTC","OBJECT_NAME":"STARLINK-1347","PERIAPSIS":"546.583","RA_OF_ASC_NODE":"241.5889","SITE":"AFETR","REF_FRAME":"TEME","EPHEMERIS_TYPE":"0","ELEMENT_SET_NO":"999","CLASSIFICATION_TYPE":"U","OBJECT_TYPE":"PAYLOAD","LAUNCH_DATE":"2020-04-22","INCLINATION":"53.0534","DECAY_DATE":null,"GP_ID":"233942721","OBJECT_ID":"2020-025BH","CENTER_NAME":"EARTH","TLE_LINE1":"1 45586U 20025BH  23165.62651448  .00000672  00000-0  64001-4 0  9990","PERIOD":"95.592"},{"REV_AT_EPOCH":"17492","NORAD_CAT_ID":"45587","RCS_SIZE":"LARGE","EPOCH":"2023-06-14T14:19:41.998368","ARG_OF_PERICENTER":"81.7583","FILE":"3933215","APOAPSIS":"547.876","MEAN_MOTION":"15.06389131","COUNTRY_CODE":"US","MEAN_MOTION_DDOT":"0.0000000000000","MEAN_ANOMALY":"278.3509","MEAN_ELEMENT_THEORY":"SGP4","TLE_LINE2":"2 45587  53.0538 241.7224 0000909  81.7583 278.3509 15.06389131174921","SEMIMAJOR_AXIS":"6925.382","MEAN_MOTION_DOT":"-0.00001237","ECCENTRICITY":"0.00009090","BSTAR":"-0.00006418300000","PERIOD":"95.593","TLE_LINE1":"1 45587U 20025BJ  23165.59701387 -.00001237  00000-0 -64183-4 0  9996","CENTER_NAME":"EARTH","GP_ID":"233943973","OBJECT_ID":"2020-025BJ","DECAY_DATE":null,"RA_OF_ASC_NODE":"241.7224","SITE":"AFETR","PERIAPSIS":"546.617","OBJECT_NAME":"STARLINK-1349","TIME_SYSTEM":"UTC","LAUNCH_DATE":"2020-04-22","OBJECT_TYPE":"PAYLOAD","INCLINATION":"53.0538","ELEMENT_SET_NO":"999","CLASSIFICATION_TYPE":"U","EPHEMERIS_TYPE":"0","REF_FRAME":"TEME"},{"ECCENTRICITY":"0.00014130","BSTAR":"0.00018803000000","SEMIMAJOR_AXIS":"6925.349","MEAN_MOTION_DOT":"0.00002520","MEAN_ELEMENT_THEORY":"SGP4","TLE_LINE2":"2 45588  53.0552 243.3111 0001413  95.3686 264.7464 15.06399974174865","MEAN_ANOMALY":"264.7464","MEAN_MOTION_DDOT":"0.0000000000000","COUNTRY_CODE":"US","APOAPSIS":"548.192","FILE":"3932965","MEAN_MOTION":"15.06399974","EPOCH":"2023-06-14T05:50:10.314816","ARG_OF_PERICENTER":"95.3686","NORAD_CAT_ID":"45588","RCS_SIZE":"LARGE","REV_AT_EPOCH":"17486","REF_FRAME":"TEME","EPHEMERIS_TYPE":"0","ELEMENT_SET_NO":"999","CLASSIFICATION_TYPE":"U","INCLINATION":"53.0552","LAUNCH_DATE":"2020-04-22","OBJECT_TYPE":"PAYLOAD","OBJECT_NAME":"STARLINK-1360","TIME_SYSTEM":"UTC","PERIAPSIS":"546.235","SITE":"AFETR","RA_OF_ASC_NODE":"243.3111","DECAY_DATE":null,"CENTER_NAME":"EARTH","GP_ID":"233911097","OBJECT_ID":"2020-025BK","TLE_LINE1":"1 45588U 20025BK  23165.24317494  .00002520  00000-0  18803-3 0  9992","PERIOD":"95.592"},{"RA_OF_ASC_NODE":"242.7290","SITE":"AFETR","PERIAPSIS":"546.588","OBJECT_NAME":"STARLINK-1364","TIME_SYSTEM":"UTC","LAUNCH_DATE":"2020-04-22","INCLINATION":"53.0538","OBJECT_TYPE":"PAYLOAD","CLASSIFICATION_TYPE":"U","ELEMENT_SET_NO":"999","EPHEMERIS_TYPE":"0","REF_FRAME":"TEME","PERIOD":"95.592","TLE_LINE1":"1 45589U 20025BL  23165.37218332  .00003393  00000-0  24658-3 0  9992","CENTER_NAME":"EARTH","GP_ID":"233911844","OBJECT_ID":"2020-025BL","DECAY_DATE":null,"MEAN_MOTION_DDOT":"0.0000000000000","MEAN_ANOMALY":"278.5048","MEAN_ELEMENT_THEORY":"SGP4","TLE_LINE2":"2 45589  53.0538 242.7290 0000914  81.6044 278.5048 15.06397727174889","SEMIMAJOR_AXIS":"6925.356","MEAN_MOTION_DOT":"0.00003393","ECCENTRICITY":"0.00009140","BSTAR":"0.00024658000000","REV_AT_EPOCH":"17488","RCS_SIZE":"LARGE","NORAD_CAT_ID":"45589","EPOCH":"2023-06-14T08:55:56.638848","ARG_OF_PERICENTER":"81.6044","FILE":"3932965","APOAPSIS":"547.854","MEAN_MOTION":"15.06397727","COUNTRY_CODE":"US"},{"SITE":"AFETR","RA_OF_ASC_NODE":"272.3642","TIME_SYSTEM":"UTC","OBJECT_NAME":"STARLINK-1365","PERIAPSIS":"547.026","CLASSIFICATION_TYPE":"U","ELEMENT_SET_NO":"999","INCLINATION":"53.0539","LAUNCH_DATE":"2020-04-22","OBJECT_TYPE":"PAYLOAD","REF_FRAME":"TEME","EPHEMERIS_TYPE":"0","TLE_LINE1":"1 45590U 20025BM  23165.45418777  .00015696  00000-0  10704-2 0  9993","PERIOD":"95.592","DECAY_DATE":null,"GP_ID":"233919208","OBJECT_ID":"2020-025BM","CENTER_NAME":"EARTH","MEAN_ANOMALY":"315.6898","MEAN_MOTION_DDOT":"0.0000000000000","MEAN_MOTION_DOT":"0.00015696","SEMIMAJOR_AXIS":"6925.363","TLE_LINE2":"2 45590  53.0539 272.3642 0000292  44.4114 315.6898 15.06395235173883","MEAN_ELEMENT_THEORY":"SGP4","BSTAR":"0.00107040000000","ECCENTRICITY":"0.00002920","RCS_SIZE":"LARGE","NORAD_CAT_ID":"45590","REV_AT_EPOCH":"17388","ARG_OF_PERICENTER":"44.4114","EPOCH":"2023-06-14T10:54:01.823328","COUNTRY_CODE":"US","MEAN_MOTION":"15.06395235","FILE":"3933021","APOAPSIS":"547.430"},{"EPOCH":"2023-06-14T13:27:57.112416","ARG_OF_PERICENTER":"68.6722","COUNTRY_CODE":"US","APOAPSIS":"547.883","FILE":"3932965","MEAN_MOTION":"15.06393302","RCS_SIZE":"LARGE","NORAD_CAT_ID":"45658","REV_AT_EPOCH":"16814","SEMIMAJOR_AXIS":"6925.369","MEAN_MOTION_DOT":"-0.00001366","MEAN_ELEMENT_THEORY":"SGP4","TLE_LINE2":"2 45658  53.0531 231.8784 0000937  68.6722 291.4366 15.06393302168143","ECCENTRICITY":"0.00009370","BSTAR":"-0.00007284800000","MEAN_ANOMALY":"291.4366","MEAN_MOTION_DDOT":"0.0000000000000","TLE_LINE1":"1 45658U 20035B   23165.56107769 -.00001366  00000-0 -72848-4 0  9997","PERIOD":"95.593","DECAY_DATE":null,"CENTER_NAME":"EARTH","GP_ID":"233911349","OBJECT_ID":"2020-035B","CLASSIFICATION_TYPE":"U","ELEMENT_SET_NO":"999","INCLINATION":"53.0531","LAUNCH_DATE":"2020-06-04","OBJECT_TYPE":"PAYLOAD","REF_FRAME":"TEME","EPHEMERIS_TYPE":"0","RA_OF_ASC_NODE":"231.8784","SITE":"AFETR","OBJECT_NAME":"STARLINK-1441","TIME_SYSTEM":"UTC","PERIAPSIS":"546.585"},{"GP_ID":"233922034","OBJECT_ID":"2020-035C","CENTER_NAME":"EARTH","DECAY_DATE":null,"PERIOD":"95.593","TLE_LINE1":"1 45659U 20035C   23165.56382156 -.00002365  00000-0 -14001-3 0  9999","PERIAPSIS":"546.592","TIME_SYSTEM":"UTC","OBJECT_NAME":"STARLINK-1442","SITE":"AFETR","RA_OF_ASC_NODE":"231.8719","EPHEMERIS_TYPE":"0","REF_FRAME":"TEME","LAUNCH_DATE":"2020-06-04","OBJECT_TYPE":"PAYLOAD","INCLINATION":"53.0530","CLASSIFICATION_TYPE":"U","ELEMENT_SET_NO":"999","REV_AT_EPOCH":"16773","NORAD_CAT_ID":"45659","RCS_SIZE":"LARGE","MEAN_MOTION":"15.06388794","APOAPSIS":"547.904","FILE":"3933115","COUNTRY_CODE":"US","ARG_OF_PERICENTER":"73.4239","EPOCH":"2023-06-14T13:31:54.182784","MEAN_MOTION_DDOT":"0.0000000000000","MEAN_ANOMALY":"286.6854","BSTAR":"-0.00014001000000","ECCENTRICITY":"0.00009470","TLE_LINE2":"2 45659  53.0530 231.8719 0000947  73.4239 286.6854 15.06388794167730","MEAN_ELEMENT_THEORY":"SGP4","MEAN_MOTION_DOT":"-0.00002365","SEMIMAJOR_AXIS":"6925.383"},{"MEAN_MOTION_DDOT":"0.0000000000000","MEAN_ANOMALY":"278.9280","BSTAR":"0.00033895000000","ECCENTRICITY":"0.00011620","TLE_LINE2":"2 45660  53.0531 234.5097 0001162  81.1841 278.9280 15.06411705168059","MEAN_ELEMENT_THEORY":"SGP4","MEAN_MOTION_DOT":"0.00004772","SEMIMAJOR_AXIS":"6925.313","REV_AT_EPOCH":"16805","NORAD_CAT_ID":"45660","RCS_SIZE":"LARGE","MEAN_MOTION":"15.06411705","FILE":"3932965","APOAPSIS":"547.982","COUNTRY_CODE":"US","ARG_OF_PERICENTER":"81.1841","EPOCH":"2023-06-13T23:24:00.686880","PERIAPSIS":"546.373","TIME_SYSTEM":"UTC","OBJECT_NAME":"STARLINK-1443","RA_OF_ASC_NODE":"234.5097","SITE":"AFETR","EPHEMERIS_TYPE":"0","REF_FRAME":"TEME","OBJECT_TYPE":"PAYLOAD","LAUNCH_DATE":"2020-06-04","INCLINATION":"53.0531","CLASSIFICATION_TYPE":"U","ELEMENT_SET_NO":"999","GP_ID":"233910850","OBJECT_ID":"2020-035D","CENTER_NAME":"EARTH","DECAY_DATE":null,"PERIOD":"95.591","TLE_LINE1":"1 45660U 20035D   23164.97500795  .00004772  00000-0  33895-3 0  9990"},{"RCS_SIZE":"LARGE","NORAD_CAT_ID":"45661","REV_AT_EPOCH":"16814","COUNTRY_CODE":"US","MEAN_MOTION":"15.06391948","FILE":"3933215","APOAPSIS":"548.053","ARG_OF_PERICENTER":"95.2074","EPOCH":"2023-06-14T14:10:24.948192","MEAN_ANOMALY":"264.9050","MEAN_MOTION_DDOT":"0.0000000000000","BSTAR":"0.00015889000000","ECCENTRICITY":"0.00011770","MEAN_MOTION_DOT":"0.00002086","SEMIMAJOR_AXIS":"6925.373","TLE_LINE2":"2 45661  53.0531 231.7458 0001177  95.2074 264.9050 15.06391948168146","MEAN_ELEMENT_THEORY":"SGP4","DECAY_DATE":null,"GP_ID":"233943727","OBJECT_ID":"2020-035E","CENTER_NAME":"EARTH","TLE_LINE1":"1 45661U 20035E   23165.59056653  .00002086  00000-0  15889-3 0  9998","PERIOD":"95.593","TIME_SYSTEM":"UTC","OBJECT_NAME":"STARLINK-1444","PERIAPSIS":"546.423","RA_OF_ASC_NODE":"231.7458","SITE":"AFETR","REF_FRAME":"TEME","EPHEMERIS_TYPE":"0","CLASSIFICATION_TYPE":"U","ELEMENT_SET_NO":"999","LAUNCH_DATE":"2020-06-04","INCLINATION":"53.0531","OBJECT_TYPE":"PAYLOAD"}];
